[{"icaoId":"KSFO","receiptTime":"2026-05-30T03:00:44.773Z","obsTime":1780109760,"reportTime":"2026-05-30T03:00:00.000Z","temp":13.9,"dewp":11.1,"wdir":270,"wspd":14,"visib":"10+","altim":1019,"slp":1018.8,"qcField":4,"presTend":0.2,"metarType":"METAR","rawOb":"METAR KSFO 300256Z 27014KT 10SM FEW003 BKN010 BKN035 14/11 A3009 RMK AO2 SLP188 T01390111 53002","lat":37.6196,"lon":-122.3656,"elev":2,"name":"San Francisco Intl, CA, US","cover":"BKN","clouds":[{"cover":"FEW","base":300},{"cover":"BKN","base":1000},{"cover":"BKN","base":3500}],"fltCat":"MVFR"},{"icaoId":"KBOS","receiptTime":"2026-05-30T02:59:57.392Z","obsTime":1780109640,"reportTime":"2026-05-30T03:00:00.000Z","temp":15,"dewp":12.2,"wdir":100,"wspd":10,"visib":"10+","altim":1005.2,"slp":1005,"qcField":4,"presTend":-1.8,"precip":0.005,"pcp3hr":0.005,"metarType":"METAR","rawOb":"METAR KBOS 300254Z 10010KT 10SM BKN100 15/12 A2968 RMK AO2 RAE09 SLP050 P0000 60000 T01500122 58018","lat":42.3606,"lon":-71.0097,"elev":4,"name":"Boston/Logan Intl, MA, US","cover":"BKN","clouds":[{"cover":"BKN","base":10000}],"fltCat":"VFR"},{"icaoId":"KDFW","receiptTime":"2026-05-30T02:58:32.192Z","obsTime":1780109580,"reportTime":"2026-05-30T03:00:00.000Z","temp":28.9,"dewp":19.4,"wdir":170,"wspd":8,"visib":"10+","altim":1009.6,"slp":1008.6,"qcField":4,"presTend":0.2,"metarType":"METAR","rawOb":"METAR KDFW 300253Z 17008KT 10SM FEW200 BKN250 29/19 A2981 RMK AO2 SLP086 T02890194 53002","lat":32.8974,"lon":-97.022,"elev":168,"name":"Dallas-Ft Worth Intl, TX, US","cover":"BKN","clouds":[{"cover":"FEW","base":20000},{"cover":"BKN","base":25000}],"fltCat":"VFR"},{"icaoId":"KSEA","receiptTime":"2026-05-30T02:58:33.390Z","obsTime":1780109580,"reportTime":"2026-05-30T03:00:00.000Z","temp":13.3,"dewp":8.3,"wdir":10,"wspd":11,"visib":"10+","altim":1019.4,"slp":1020,"qcField":12,"presTend":0.8,"metarType":"METAR","rawOb":"METAR KSEA 300253Z 01011KT 10SM SCT050 BKN065 13/08 A3010 RMK AO2 SLP200 T01330083 53008 $","lat":47.4447,"lon":-122.3144,"elev":115,"name":"Seattle-Tacoma Intl, WA, US","cover":"BKN","clouds":[{"cover":"SCT","base":5000},{"cover":"BKN","base":6500}],"fltCat":"VFR"},{"icaoId":"KLAX","receiptTime":"2026-05-30T02:58:34.959Z","obsTime":1780109580,"reportTime":"2026-05-30T03:00:00.000Z","temp":16.7,"dewp":13.3,"wdir":250,"wspd":8,"visib":"10+","altim":1016.3,"slp":1016,"qcField":12,"presTend":0.3,"metarType":"METAR","rawOb":"METAR KLAX 300253Z 25008KT 10SM FEW019 FEW050 17/13 A3001 RMK AO2 SLP160 T01670133 53003 $","lat":33.9382,"lon":-118.3866,"elev":30,"name":"Los Angeles Intl, CA, US","cover":"FEW","clouds":[{"cover":"FEW","base":1900},{"cover":"FEW","base":5000}],"fltCat":"VFR"},{"icaoId":"KATL","receiptTime":"2026-05-30T02:56:14.410Z","obsTime":1780109520,"reportTime":"2026-05-30T03:00:00.000Z","temp":21.7,"dewp":20.6,"wdir":160,"wspd":8,"visib":5,"altim":1016,"slp":1015,"qcField":12,"wxString":"-RA BR","presTend":0.5,"precip":0.03,"pcp3hr":0.15,"metarType":"METAR","rawOb":"METAR KATL 300252Z 16008KT 5SM -RA BR BKN005 BKN050 OVC110 22/21 A3000 RMK AO2 SLP150 P0003 60015 T02170206 53005 $","lat":33.6297,"lon":-84.4422,"elev":309,"name":"Atlanta/Hartsfield-Jackson Intl, GA, US","cover":"OVC","clouds":[{"cover":"BKN","base":500},{"cover":"BKN","base":5000},{"cover":"OVC","base":11000}],"fltCat":"IFR"},{"icaoId":"KLGA","receiptTime":"2026-05-30T02:56:21.889Z","obsTime":1780109460,"reportTime":"2026-05-30T03:00:00.000Z","temp":22.8,"dewp":8.3,"wdir":220,"wspd":12,"wgst":20,"visib":"10+","altim":1005.8,"slp":1005.6,"qcField":12,"presTend":-0.9,"metarType":"METAR","rawOb":"METAR KLGA 300251Z 22012G20KT 10SM SCT080 BKN095 BKN120 23/08 A2970 RMK AO2 SLP056 T02280083 56009 $","lat":40.7794,"lon":-73.8803,"elev":9,"name":"New York/La Guardia Arpt, NY, US","cover":"BKN","clouds":[{"cover":"SCT","base":8000},{"cover":"BKN","base":9500},{"cover":"BKN","base":12000}],"fltCat":"VFR"},{"icaoId":"KORD","receiptTime":"2026-05-30T02:54:13.385Z","obsTime":1780109460,"reportTime":"2026-05-30T03:00:00.000Z","temp":19.4,"dewp":11.1,"wdir":30,"wspd":10,"visib":"10+","altim":1014.6,"slp":1014.1,"qcField":12,"presTend":0.6,"metarType":"METAR","rawOb":"METAR KORD 300251Z 03010KT 10SM BKN250 19/11 A2996 RMK AO2 SLP141 T01940111 53006 $","lat":41.9602,"lon":-87.9316,"elev":202,"name":"Chicago/O'Hare Intl, IL, US","cover":"BKN","clouds":[{"cover":"BKN","base":25000}],"fltCat":"VFR"},{"icaoId":"KEWR","receiptTime":"2026-05-30T02:54:13.147Z","obsTime":1780109460,"reportTime":"2026-05-30T03:00:00.000Z","temp":22.8,"dewp":8.9,"wdir":220,"wspd":10,"visib":"10+","altim":1006.2,"slp":1006.1,"qcField":12,"presTend":-0.7,"metarType":"METAR","rawOb":"METAR KEWR 300251Z 22010KT 10SM FEW055 BKN100 BKN150 23/09 A2971 RMK AO2 SLP061 T02280089 56007 $","lat":40.6828,"lon":-74.1692,"elev":2,"name":"Newark Intl, NJ, US","cover":"BKN","clouds":[{"cover":"FEW","base":5500},{"cover":"BKN","base":10000},{"cover":"BKN","base":15000}],"fltCat":"VFR"},{"icaoId":"KJFK","receiptTime":"2026-05-30T02:54:13.296Z","obsTime":1780109460,"reportTime":"2026-05-30T03:00:00.000Z","temp":18.9,"dewp":12.2,"wdir":200,"wspd":11,"visib":"10+","altim":1006.5,"slp":1006.5,"qcField":12,"presTend":-0.9,"precip":0.005,"pcp3hr":0.005,"metarType":"METAR","rawOb":"METAR KJFK 300251Z 20011KT 10SM BKN085 BKN110 BKN150 19/12 A2972 RMK AO2 RAB21E49 SLP065 P0000 60000 T01890122 56009 $","lat":40.6392,"lon":-73.7639,"elev":3,"name":"New York/JF Kennedy Intl, NY, US","cover":"BKN","clouds":[{"cover":"BKN","base":8500},{"cover":"BKN","base":11000},{"cover":"BKN","base":15000}],"fltCat":"VFR"}]